PANDORA
1 67395U 80229J   26055.68288194  .00000000  00000-0  37770-3 0    05
2 67395  97.8043  56.1159 0006489 129.5866 322.2786 14.87852754    05
